{
    "links": {
        "self": "http://www.neowsapp.com/rest/v1/neo/3508144?api_key=iIulBulltgU6a56xZRHN4H3l9WmuAYTsLGpBGhQ2"
    },
    "id": "3508144",
    "neo_reference_id": "3508144",
    "name": "(2010 DN)",
    "designation": "2010 DN",
    "nasa_jpl_url": "http://ssd.jpl.nasa.gov/sbdb.cgi?sstr=3508144",
    "absolute_magnitude_h": 20.9,
    "estimated_diameter": {
        "kilometers": {
            "estimated_diameter_min": 0.1756123185,
            "estimated_diameter_max": 0.3926810818
        },
        "meters": {
            "estimated_diameter_min": 175.6123184804,
            "estimated_diameter_max": 392.6810818086
        },
        "miles": {
            "estimated_diameter_min": 0.1091204019,
            "estimated_diameter_max": 0.2440006365
        },
        "feet": {
            "estimated_diameter_min": 576.1559189633,
            "estimated_diameter_max": 1288.3238004408
        }
    },
    "is_potentially_hazardous_asteroid": false,
    "close_approach_data": [
        {
            "close_approach_date": "2010-01-25",
            "close_approach_date_full": "2010-Jan-25 16:27",
            "epoch_date_close_approach": 1264436820000,
            "relative_velocity": {
                "kilometers_per_second": "13.5078290116",
                "kilometers_per_hour": "48628.1844416873",
                "miles_per_hour": "30215.6627160029"
            },
            "miss_distance": {
                "astronomical": "0.4728555231",
                "lunar": "183.9407984859",
                "kilometers": "70738179.073495797",
                "miles": "43954666.2713121186"
            },
            "orbiting_body": "Earth"
        }
    ],
    "orbital_data": {
        "orbit_id": "11",
        "orbit_determination_date": "2020-07-01 05:57:31",
        "first_observation_date": "2010-02-13",
        "last_observation_date": "2010-03-12",
        "data_arc_in_days": 27,
        "observations_used": 26,
        "orbit_uncertainty": "7",
        "minimum_orbit_intersection": ".41923",
        "jupiter_tisserand_invariant": "3.084",
        "epoch_osculation": "2459000.5",
        "eccentricity": ".5335547431434412",
        "semi_major_axis": "2.571048884529223",
        "inclination": "26.8891723955987",
        "ascending_node_longitude": "149.486796557373",
        "orbital_period": "1505.788333871629",
        "perihelion_distance": "1.199253557335002",
        "perihelion_argument": "288.5062110033292",
        "aphelion_distance": "3.942844211723443",
        "perihelion_time": "2459669.012858655630",
        "mean_anomaly": "200.1736660442583",
        "mean_motion": ".2390774266887704",
        "equinox": "J2000",
        "orbit_class": {
            "orbit_class_type": "AMO",
            "orbit_class_description": "Near-Earth asteroid orbits similar to that of 1221 Amor",
            "orbit_class_range": "1.017 AU < q (perihelion) < 1.3 AU"
        }
    },
    "is_sentry_object": false
}